#dP2023  8  3 18  0  0.00000000      96 __u+U ITR00 EXT  IAC
## 2273 410400.00000000   900.00000000 60159 0.7500000000000
+  119   C06C07C08C09C10C11C12C13C14C16C19C20C21C22C23C24C25
+        C26C27C28C29C30C32C33C34C35C36C37C38C39C40C41C42C43
+        C44C45C46E02E03E04E05E07E08E09E10E11E12E13E14E15E18
+        E19E21E24E25E26E27E30E31E33E34E36G01G02G03G04G05G06
+        G07G08G09G10G11G12G13G14G15G16G17G18G19G20G21G22G23
+        G24G25G26G27G28G29G30G31G32J02J03J04R01R02R03R04R05
+        R07R08R09R11R12R13R14R15R16R17R18R19R20R21R22R24R25
++        10 10  8 10 10  9  8  9  8 10 10  8 10  9  9  7  7
++         7  8  8  8  8  8  8  8  8  8  8  9 10 11  7  9  7
++         9 10  9  7  8  6  7  8  9  7  7  6  9  7  8  6  7
++         6  6  8  7  7  8  9  7  7  7  7  7  7  6  8  8  8
++         6  6  7  6  8  7  8  7  6  7  7  7  6  6  7  9  5
++         7  8  6  6  8  8  7  7  7  9 10 11  8  8  8  8  9
++         6  6  9  6  8  6  8  7  8  9  9  9  9  7  9  8  7
%c M  cc GPS ccc cccc cccc cccc cccc ccccc ccccc ccccc ccccc
%c cc cc ccc ccc cccc cccc cccc cccc ccccc ccccc ccccc ccccc
%f  0.0000000  0.000000000  0.00000000000  0.000000000000000
%f  0.0000000  0.000000000  0.00000000000  0.000000000000000
%i    0    0    0    0      0      0      0      0         0
%i    0    0    0    0      0      0      0      0         0
/* IAC                                ULTRA-RAPID PREDICTION
/* S/V CLOCKS ARE ALIGNED TO GNSS TIME                      
/* G:C1WC2W R:C1PC2P E:C1XC5X C:C2IC6I J:C1CC2S             
/* PCV:IGS20_2247 OL/AL:FES2004  NONE     YN ORB:CoN CLK:CoN
*  2023 08 04  5 45  0.00000000
PC06 -19181.795147  34900.914204 -14250.415066    783.100342
PC07  -3153.737520  36439.795134 -20700.719531    123.466747
PC08  -7764.980469  19276.895831  36646.099057    403.497206
PC09 -12624.268285  33732.665632 -21945.576958    334.962665
PC10   2598.027013  38549.266876 -15874.013977   -134.770117
PC11   3078.028180  19788.604630  19485.650958    761.220435
PC12 -11443.062529  25080.663698   4306.446724    842.189891
PC13   -127.058038  22212.663569  35981.193161    328.005144
PC14  13343.008461  24421.889895   1588.898512    168.876056
PC16 -20843.447348  34591.654394 -12378.205378    -21.104479
PC19 -17988.160375 -19913.948244   7721.402804   -952.718755
PC20  -7899.128443 -25215.343170  -9020.829595    387.276517
PC21  -7906.660206  15617.667564  21735.022022   -944.116325
PC22 -18259.397988  -2907.699143  20902.672250   -366.595072
PC23  27904.187472   -407.244829     65.658486   -917.766458
PC24    204.082317  16343.108727 -22622.436185    246.291203
PC25  20865.795237  10326.509846 -15405.395664    182.104294
PC26 -18404.569470  12699.050198 -16686.419804   -158.272919
PC27  16070.209114 -22456.843790   3985.673405    179.395666
PC28  19462.027572  -8797.305681  17967.692835    134.016282
PC29 -11490.473241 -11927.572665 -22467.955475    156.266024
PC30   3346.695276 -24858.948516 -12224.087810     -3.013355
PC32   7836.937278 -15630.545983 -21743.136743   -534.275649
PC33  18066.263652  19852.303044  -7598.733907   -928.680504
PC34  -2280.315155  24428.697124  13295.768146    229.541054
PC35 -19168.100107   9163.180249 -18123.260204    574.928151
PC36 -19955.098905 -11224.576939  15980.060707   -294.210614
PC37  19548.229934 -11842.266530  16045.521932   -801.956279
PC38 -16775.039525  19121.298483  33602.559645     95.940634
PC39 -23174.623510  34857.816750  -5996.865259     -4.130370
PC40  -7320.946922  33029.576909 -24964.370833    -31.684775
PC41  18490.875418   3558.679314 -20544.454222   -892.891732
PC42   6768.122785  25013.411095  10358.524286   -589.221963
PC43  10982.347375  12835.222493  22203.151886     33.739840
PC44 -15361.743552  22934.771729  -4198.145133    189.390112
PC45 -27880.383464    703.391497   -555.069409     -9.872678
PC46  -1723.715657 -16179.403137  22675.129029    -73.919641
PE02  -8655.146561 -20855.062327  19136.527829     53.638623
PE03  -2351.208573 -29185.589964   4391.804812    -42.560254
PE04  13480.139024  17321.906522 -19852.593400   -181.620684
PE05  10262.757551 -24100.497467 -13786.379169      5.803601
PE07 -16865.373960   4528.194135  23903.710609    -64.842601
PE08 -13220.283389 -17703.643570  19703.949509   -124.900511
PE09  16727.550678  -4400.905985 -24020.843926   -108.181128
PE10  24052.898151   -579.137498  17237.104071   -553.504267
PE11  27063.670832  -8673.119125   8250.324590   2646.203820
PE12  17672.443994   7063.442126  22658.083357   -644.459197
PE13 -26989.680330   8194.158122  -8980.605451    -19.389204
PE14 -13825.815030 -22087.461614 -19209.687594    301.377174
PE15 -17336.930840  -7263.797131 -22867.324116    -42.366294
PE18  13170.450712  10225.630669  17069.315632    373.445642
PE19    497.693353  29531.942024  -1942.052905  -1927.429356
PE21 -10747.183700  13018.935656 -24308.784104   -544.627681
PE24  25216.297463   3352.788841  15141.046572   -246.587148
PE25  11092.090919 -12791.029085  24290.302829   -609.313279
PE26 -20181.473416  18878.749931  10589.694814    182.638021
PE27 -24968.758659  -2750.670832 -15646.553955   -115.896368
PE30 -24061.493133 -17040.307059   2566.193946   -389.959505
PE31  24338.518051  16711.438786  -2109.176643     -1.879121
PE33  -2999.702478  18449.811715  22942.689855     -1.906552
PE34   2285.010820 -18269.496787 -23192.479891    -59.673796
PE36  20709.871639 -18647.887150  -9980.458316    -95.890457
PG01   5573.518169 -17137.377925 -19730.378569    169.974051
PG02  11785.935058 -18718.420571 -14077.618633   -569.194389
PG03  -5618.640300 -18425.785125 -18479.417723   -203.300498
PG04    144.611785 -26323.649774   3020.066295    115.269277
PG05 -10644.269340  10993.456500  21536.576648   -137.466039
PG06 -23867.001867   3785.395223 -11070.716170    570.722823
PG07 -11748.111203 -11278.357724  21518.864604    105.747605
PG08   6453.923195 -24108.709075   8410.106696   -135.484849
PG09  -7456.579277 -22694.892339  11482.315729    -95.488607
PG10  23777.466074  10485.588546  -6076.294087    -47.858126
PG11 -23142.274958  12649.179133   2924.817324   -305.260315
PG12    544.406963  17775.494652 -20025.470320   -408.762169
PG13 -13068.522185  18355.451693  13703.604413    555.754669
PG14 -23018.268367 -13011.821566  -3305.918239    143.307696
PG15  -2999.195749  25130.488776   7151.209125     64.346520
PG16  15503.512970  -5963.699322  20517.158555   -472.673864
PG17 -13415.229596  -8198.827432 -20956.529399    722.208115
PG18  13678.523955   9117.039193  20898.247233   -370.119548
PG19 -15171.812995     23.653105 -21989.628985    352.963170
PG20 -19477.812987   5107.140293  17257.537459    419.087813
PG21  13637.644220 -18457.175196 -12023.784597    151.267921
PG22  15210.265505  -4439.291599 -20838.220301    522.226817
PG23  19866.820780  16749.099258   5914.625293     50.907779
PG24  -8601.824664  19445.059964 -16020.819327   -279.058520
PG25  14101.294697  19212.275875 -12312.116852    460.147014
PG26  22860.131368   1056.737013  13648.155851    234.237420
PG27  12622.572396 -15245.190119  17255.573889    -15.741454
PG28  23170.356320  -2736.166487 -12712.150145     78.939650
PG29   4628.982263  23564.373169  11184.816781   -607.073246
PG30 -19931.908830  -4248.419099  17291.225998   -499.205657
PG31  24788.644769  -9829.436181  -2758.779744   -221.245581
PG32  14850.935950   4137.869604 -21464.954721   -534.148310
PJ02 -25544.823465  15946.676279 -24894.085673     -2.119025
PJ03 -28087.103640  31416.137847   3970.314666     -0.643692
PJ04 -24203.857933  28533.729298  25423.367384     98.252507
PR01  -8132.610223 -24011.668751  -2888.502013     62.785985
PR02 -13134.690172 -16160.200100  14725.416638    -22.550782
PR03 -11092.082905   1212.875924  22977.324325     82.631808
PR04  -2883.333128  17335.648057  18520.553562    197.309410
PR05   6724.249465  24292.134070   4011.135512    116.791286
PR07  10812.995848  -1959.638953 -22984.584401     61.674391
PR08   2714.683649 -17513.022597 -18276.136229    -71.947174
PR09  22695.257782   7568.386533  -8709.237449    134.836652
PR11  12915.661144  -7870.609876  20549.076928   -122.500474
PR12  -7775.416245 -11653.692454  21344.763987     29.816317
PR13 -21579.771960  -8463.436067  10641.226612    -37.778784
PR14 -24050.623926    399.736755  -8504.984375     25.065152
PR15 -11759.929670   8320.668889 -21027.041371     87.307792
PR16   7543.937036  11446.785985 -21486.435294     17.364233
PR17 -17947.824339  11487.859064 -13980.108971      5.777988
PR18 -15837.096746  19919.271254   2065.741626     95.023037
PR19  -7174.942350  18496.912437  16020.858714   -242.233713
PR20   9460.812500   4902.434591  23177.079155    -97.709250
PR21  18182.632168 -12303.071785  13013.252546    -27.731601
PR22  16025.600898 -19612.206932  -2980.046423    107.129515
PR24 -10414.245508  -4309.772507 -22868.849284    -19.137278
PR25  18601.455323 -10537.166719  13936.813389     44.300764
EOF
